[{"OBJECT_NAME":"STARLINK-4026","OBJECT_ID":"2022-052C","EPOCH":"2026-03-09T20:35:49.167744","MEAN_MOTION":15.08837616,"ECCENTRICITY":0.00013388,"INCLINATION":53.2155,"RA_OF_ASC_NODE":278.3676,"ARG_OF_PERICENTER":87.3603,"MEAN_ANOMALY":272.7542,"EPHEMERIS_TYPE":0,"CLASSIFICATION_TYPE":"U","NORAD_CAT_ID":52600,"ELEMENT_SET_NO":999,"REV_AT_EPOCH":21168,"BSTAR":-9.287864e-6,"MEAN_MOTION_DOT":-4.36e-6,"MEAN_MOTION_DDOT":0},{"OBJECT_NAME":"SL-12 DEB","OBJECT_ID":"2006-062M","EPOCH":"2026-03-08T00:46:20.799552","MEAN_MOTION":4.42836906,"ECCENTRICITY":0.55847788,"INCLINATION":65.0229,"RA_OF_ASC_NODE":346.6556,"ARG_OF_PERICENTER":234.3411,"MEAN_ANOMALY":60.2136,"EPHEMERIS_TYPE":0,"CLASSIFICATION_TYPE":"U","NORAD_CAT_ID":41807,"ELEMENT_SET_NO":999,"REV_AT_EPOCH":483,"BSTAR":0.00053055171,"MEAN_MOTION_DOT":1.21e-6,"MEAN_MOTION_DDOT":0}]
